{"type": "FeatureCollection", "features": [ {"type": "Feature", "properties": {"norad_id": 66635, "name": "STARLINK-35955", "group": "last-30-days", "lat": 49.823712556456606, "lon": -179.17237242024333, "alt_km": 439.125868547374, "timestamp": "2025-12-27T07:26:23.944293+00:00", "meta": {"OBJECT_NAME": "STARLINK-35955", "OBJECT_ID": "2025-271U", "EPOCH": "2025-12-25T19:17:41.940096", "MEAN_MOTION": 15.39634184, "ECCENTRICITY": 0.00013376, "INCLINATION": 53.1599, "RA_OF_ASC_NODE": 125.3143, "ARG_OF_PERICENTER": 69.5636, "MEAN_ANOMALY": 290.5513, "EPHEMERIS_TYPE": 0, "CLASSIFICATION_TYPE": "U", "NORAD_CAT_ID": 66635, "ELEMENT_SET_NO": 999, "REV_AT_EPOCH": 622, "BSTAR": 0.0013073376, "MEAN_MOTION_DOT": 0.00052277, "MEAN_MOTION_DDOT": 0}, "tle": {"line1": "1 66635U 25271U   25359.80395764  .00052277  00000+0  13073-2 0  9997", "line2": "2 66635  53.1599 125.3143 0001337  69.5636 290.5513 15.39634184  6227"}}, "geometry": {"type": "Point", "coordinates": [-179.17237242024333, 49.823712556456606]}}, {"type": "Feature", "properties": {"norad_id": 66636, "name": "STARLINK-35968", "group": "last-30-days", "lat": 35.48359355400735, "lon": 150.57350508277756, "alt_km": 441.3457647833975, "timestamp": "2025-12-27T07:26:23.944304+00:00", "meta": {"OBJECT_NAME": "STARLINK-35968", "OBJECT_ID": "2025-271V", "EPOCH": "2025-12-26T17:13:03.970848", "MEAN_MOTION": 15.39632302, "ECCENTRICITY": 0.00017136, "INCLINATION": 53.1598, "RA_OF_ASC_NODE": 121.0603, "ARG_OF_PERICENTER": 40.1612, "MEAN_ANOMALY": 319.9519, "EPHEMERIS_TYPE": 0, "CLASSIFICATION_TYPE": "U", "NORAD_CAT_ID": 66636, "ELEMENT_SET_NO": 999, "REV_AT_EPOCH": 636, "BSTAR": 0.0011785666, "MEAN_MOTION_DOT": 0.00047053, "MEAN_MOTION_DDOT": 0}, "tle": {"line1": "1 66636U 25271V   25360.71740707  .00047053  00000+0  11786-2 0  9996", "line2": "2 66636  53.1598 121.0603 0001713  40.1612 319.9519 15.39632302  6365"}}, "geometry": {"type": "Point", "coordinates": [150.57350508277756, 35.48359355400735]}}, {"type": "Feature", "properties": {"norad_id": 66637, "name": "STARLINK-35953", "group": "last-30-days", "lat": 52.370322744429885, "lon": -138.3644649593478, "alt_km": 438.9769994130711, "timestamp": "2025-12-27T07:26:23.944315+00:00", "meta": {"OBJECT_NAME": "STARLINK-35953", "OBJECT_ID": "2025-271W", "EPOCH": "2025-12-26T15:26:12.772032", "MEAN_MOTION": 15.39656782, "ECCENTRICITY": 0.0001377, "INCLINATION": 53.16, "RA_OF_ASC_NODE": 121.3067, "ARG_OF_PERICENTER": 93.3445, "MEAN_ANOMALY": 266.7717, "EPHEMERIS_TYPE": 0, "CLASSIFICATION_TYPE": "U", "NORAD_CAT_ID": 66637, "ELEMENT_SET_NO": 999, "REV_AT_EPOCH": 635, "BSTAR": 0.0010855, "MEAN_MOTION_DOT": 0.00043318, "MEAN_MOTION_DDOT": 0}, "tle": {"line1": "1 66637U 25271W   25360.64320338  .00043318  00000+0  10855-2 0  9999", "line2": "2 66637  53.1600 121.3067 0001377  93.3445 266.7717 15.39656782  6353"}}, "geometry": {"type": "Point", "coordinates": [-138.3644649593478, 52.370322744429885]}}, {"type": "Feature", "properties": {"norad_id": 66638, "name": "STARLINK-35972", "group": "last-30-days", "lat": 23.808485209782337, "lon": -81.25528160511661, "alt_km": 444.0203096098576, "timestamp": "2025-12-27T07:26:23.944326+00:00", "meta": {"OBJECT_NAME": "STARLINK-35972", "OBJECT_ID": "2025-271X", "EPOCH": "2025-12-26T15:12:50.248224", "MEAN_MOTION": 15.39620683, "ECCENTRICITY": 0.0001104, "INCLINATION": 53.1593, "RA_OF_ASC_NODE": 121.2492, "ARG_OF_PERICENTER": 85.6164, "MEAN_ANOMALY": 274.4967, "EPHEMERIS_TYPE": 0, "CLASSIFICATION_TYPE": "U", "NORAD_CAT_ID": 66638, "ELEMENT_SET_NO": 999, "REV_AT_EPOCH": 635, "BSTAR": 0.0013556, "MEAN_MOTION_DOT": 0.0005421, "MEAN_MOTION_DDOT": 0}, "tle": {"line1": "1 66638U 25271X   25360.63391491  .00054210  00000+0  13556-2 0  9991", "line2": "2 66638  53.1593 121.2492 0001104  85.6164 274.4967 15.39620683  6350"}}, "geometry": {"type": "Point", "coordinates": [-81.25528160511661, 23.808485209782337]}}, {"type": "Feature", "properties": {"norad_id": 66639, "name": "STARLINK-35908", "group": "last-30-days", "lat": 3.6426830622022504, "lon": -64.72435893520458, "alt_km": 447.51189762842296, "timestamp": "2025-12-27T07:26:23.944337+00:00", "meta": {"OBJECT_NAME": "STARLINK-35908", "OBJECT_ID": "2025-271Y", "EPOCH": "2025-12-26T18:13:06.311712", "MEAN_MOTION": 15.39628094, "ECCENTRICITY": 0.00010757, "INCLINATION": 53.1602, "RA_OF_ASC_NODE": 120.608, "ARG_OF_PERICENTER": 79.5752, "MEAN_ANOMALY": 280.5374, "EPHEMERIS_TYPE": 0, "CLASSIFICATION_TYPE": "U", "NORAD_CAT_ID": 66639, "ELEMENT_SET_NO": 999, "REV_AT_EPOCH": 637, "BSTAR": 0.0012582205, "MEAN_MOTION_DOT": 0.00050274, "MEAN_MOTION_DDOT": 0}, "tle": {"line1": "1 66639U 25271Y   25360.75910083  .00050274  00000+0  12582-2 0  9993", "line2": "2 66639  53.1602 120.6080 0001075  79.5752 280.5374 15.39628094  6376"}}, "geometry": {"type": "Point", "coordinates": [-64.72435893520458, 3.6426830622022504]}}, {"type": "Feature", "properties": {"norad_id": 66640, "name": "STARLINK-35921", "group": "last-30-days", "lat": 41.61736303483248, "lon": -103.64810943273734, "alt_km": 440.96844397331097, "timestamp": "2025-12-27T07:26:23.944347+00:00", "meta": {"OBJECT_NAME": "STARLINK-35921", "OBJECT_ID": "2025-271Z", "EPOCH": "2025-12-26T15:19:31.517472", "MEAN_MOTION": 15.39614416, "ECCENTRICITY": 0.00011551, "INCLINATION": 53.1606, "RA_OF_ASC_NODE": 121.2774, "ARG_OF_PERICENTER": 79.5754, "MEAN_ANOMALY": 280.5381, "EPHEMERIS_TYPE": 0, "CLASSIFICATION_TYPE": "U", "NORAD_CAT_ID": 66640, "ELEMENT_SET_NO": 999, "REV_AT_EPOCH": 635, "BSTAR": 0.0013606347, "MEAN_MOTION_DOT": 0.00054404, "MEAN_MOTION_DDOT": 0}, "tle": {"line1": "1 66640U 25271Z   25360.63855923  .00054404  00000+0  13606-2 0  9990", "line2": "2 66640  53.1606 121.2774 0001155  79.5754 280.5381 15.39614416  6359"}}, "geometry": {"type": "Point", "coordinates": [-103.64810943273734, 41.61736303483248]}}, {"type": "Feature", "properties": {"norad_id": 66641, "name": "STARLINK-35923", "group": "last-30-days", "lat": -42.66635651922254, "lon": 74.04966801847871, "alt_km": 452.14241283476804, "timestamp": "2025-12-27T07:26:23.944357+00:00", "meta": {"OBJECT_NAME": "STARLINK-35923", "OBJECT_ID": "2025-271AA", "EPOCH": "2025-12-26T22:00:01.999584", "MEAN_MOTION": 15.39596822, "ECCENTRICITY": 0.00010866, "INCLINATION": 53.1604, "RA_OF_ASC_NODE": 119.6122, "ARG_OF_PERICENTER": 63.2018, "MEAN_ANOMALY": 217.7967, "EPHEMERIS_TYPE": 0, "CLASSIFICATION_TYPE": "U", "NORAD_CAT_ID": 66641, "ELEMENT_SET_NO": 999, "REV_AT_EPOCH": 597, "BSTAR": 0.00050988568, "MEAN_MOTION_DOT": 0.00020033, "MEAN_MOTION_DDOT": 0}, "tle": {"line1": "1 66641U 25271AA  25360.91668981  .00020033  00000+0  50989-3 0  9995", "line2": "2 66641  53.1604 119.6122 0001086  63.2018 217.7967 15.39596822  5971"}}, "geometry": {"type": "Point", "coordinates": [74.04966801847871, -42.66635651922254]}}, {"type": "Feature", "properties": {"norad_id": 66642, "name": "STARLINK-35926", "group": "last-30-days", "lat": -52.35588871199045, "lon": 41.40658839661121, "alt_km": 452.849401094767, "timestamp": "2025-12-27T07:26:23.944369+00:00", "meta": {"OBJECT_NAME": "STARLINK-35926", "OBJECT_ID": "2025-271AB", "EPOCH": "2025-12-26T22:00:01.999584", "MEAN_MOTION": 15.39559913, "ECCENTRICITY": 0.00011036, "INCLINATION": 53.1604, "RA_OF_ASC_NODE": 119.6608, "ARG_OF_PERICENTER": 77.6509, "MEAN_ANOMALY": 179.4925, "EPHEMERIS_TYPE": 0, "CLASSIFICATION_TYPE": "U", "NORAD_CAT_ID": 66642, "ELEMENT_SET_NO": 999, "REV_AT_EPOCH": 609, "BSTAR": 0.00083875126, "MEAN_MOTION_DOT": 0.0003323, "MEAN_MOTION_DDOT": 0}, "tle": {"line1": "1 66642U 25271AB  25360.91668981  .00033230  00000+0  83875-3 0  9999", "line2": "2 66642  53.1604 119.6608 0001103  77.6509 179.4925 15.39559913  6097"}}, "geometry": {"type": "Point", "coordinates": [41.40658839661121, -52.35588871199045]}}, {"type": "Feature", "properties": {"norad_id": 66643, "name": "STARLINK-35918", "group": "last-30-days", "lat": -16.812666051946106, "lon": -48.9489744500755, "alt_km": 450.32846526414687, "timestamp": "2025-12-27T07:26:23.944379+00:00", "meta": {"OBJECT_NAME": "STARLINK-35918", "OBJECT_ID": "2025-271AC", "EPOCH": "2025-12-26T16:32:56.529024", "MEAN_MOTION": 15.39629567, "ECCENTRICITY": 0.00011855, "INCLINATION": 53.161, "RA_OF_ASC_NODE": 120.8829, "ARG_OF_PERICENTER": 74.5312, "MEAN_ANOMALY": 285.5823, "EPHEMERIS_TYPE": 0, "CLASSIFICATION_TYPE": "U", "NORAD_CAT_ID": 66643, "ELEMENT_SET_NO": 999, "REV_AT_EPOCH": 636, "BSTAR": 0.00089567326, "MEAN_MOTION_DOT": 0.00035605, "MEAN_MOTION_DDOT": 0}, "tle": {"line1": "1 66643U 25271AC  25360.68954316  .00035605  00000+0  89567-3 0  9996", "line2": "2 66643  53.1610 120.8829 0001185  74.5312 285.5823 15.39629567  6361"}}, "geometry": {"type": "Point", "coordinates": [-48.9489744500755, -16.812666051946106]}}, {"type": "Feature", "properties": {"norad_id": 66644, "name": "STARLINK-35938", "group": "last-30-days", "lat": -52.66634695387794, "lon": 38.41037637356838, "alt_km": 452.79865019389035, "timestamp": "2025-12-27T07:26:23.944391+00:00", "meta": {"OBJECT_NAME": "STARLINK-35938", "OBJECT_ID": "2025-271AD", "EPOCH": "2025-12-26T22:00:01.999584", "MEAN_MOTION": 15.39593513, "ECCENTRICITY": 0.00012298, "INCLINATION": 53.1602, "RA_OF_ASC_NODE": 119.6649, "ARG_OF_PERICENTER": 64.2643, "MEAN_ANOMALY": 190.9865, "EPHEMERIS_TYPE": 0, "CLASSIFICATION_TYPE": "U", "NORAD_CAT_ID": 66644, "ELEMENT_SET_NO": 999, "REV_AT_EPOCH": 587, "BSTAR": 0.00049983967, "MEAN_MOTION_DOT": 0.00019628, "MEAN_MOTION_DDOT": 0}, "tle": {"line1": "1 66644U 25271AD  25360.91668981  .00019628  00000+0  49984-3 0  9999", "line2": "2 66644  53.1602 119.6649 0001229  64.2643 190.9865 15.39593513  5872"}}, "geometry": {"type": "Point", "coordinates": [38.41037637356838, -52.66634695387794]}}]}